{
  "type": "FeatureCollection",
  "features": [
    {
      "type": "Feature",
      "properties": {
        "norad_id": 40938,
        "name": "BEIDOU-3S IGSO-2S (C56)",
        "group": "gnss",
        "lat": 2.9135229402964575,
        "lon": 78.42792020376629,
        "alt_km": 35536.95012807948,
        "timestamp": "2025-12-20T16:47:36.528852+00:00",
        "meta_object_name": "BEIDOU-3S IGSO-2S (C56)",
        "meta_object_id": "2015-053A",
        "meta_epoch": "2025-12-20T13:40:56.130240",
        "meta_mean_motion": 1.00268369,
        "meta_eccentricity": 0.0060606,
        "meta_inclination": 49.4984,
        "meta_ra_of_asc_node": 260.9134,
        "meta_arg_of_pericenter": 188.756,
        "meta_mean_anomaly": 300.8373,
        "meta_ephemeris_type": 0,
        "meta_classification_type": "U",
        "meta_norad_cat_id": 40938,
        "meta_element_set_no": 999,
        "meta_rev_at_epoch": 3756,
        "meta_bstar": 0,
        "meta_mean_motion_dot": -1.07e-06,
        "meta_mean_motion_ddot": 0,
        "tle_line1": "1 40938U 15053A   25354.57009410 -.00000107  00000+0  00000+0 0  9990",
        "tle_line2": "2 40938  49.4984 260.9134 0060606 188.7560 300.8373  1.00268369 37562"
      },
      "geometry": {
        "type": "Point",
        "coordinates": [
          78.42792020376629,
          2.9135229402964575
        ]
      }
    },
    {
      "type": "Feature",
      "properties": {
        "norad_id": 41019,
        "name": "GPS BIIF-11 (PRN 10)",
        "group": "gnss",
        "lat": -48.187173721204296,
        "lon": -9.213702608215193,
        "alt_km": 20068.654876331646,
        "timestamp": "2025-12-20T16:47:36.528863+00:00",
        "meta_object_name": "GPS BIIF-11 (PRN 10)",
        "meta_object_id": "2015-062A",
        "meta_epoch": "2025-12-20T06:55:31.851840",
        "meta_mean_motion": 2.00567229,
        "meta_eccentricity": 0.011101,
        "meta_inclination": 56.8376,
        "meta_ra_of_asc_node": 37.7103,
        "meta_arg_of_pericenter": 230.1354,
        "meta_mean_anomaly": 128.9487,
        "meta_ephemeris_type": 0,
        "meta_classification_type": "U",
        "meta_norad_cat_id": 41019,
        "meta_element_set_no": 999,
        "meta_rev_at_epoch": 7424,
        "meta_bstar": 0,
        "meta_mean_motion_dot": -5.7e-07,
        "meta_mean_motion_ddot": 0,
        "tle_line1": "1 41019U 15062A   25354.28856310 -.00000057  00000+0  00000+0 0  9992",
        "tle_line2": "2 41019  56.8376  37.7103 0111010 230.1354 128.9487  2.00567229 74244"
      },
      "geometry": {
        "type": "Point",
        "coordinates": [
          -9.213702608215193,
          -48.187173721204296
        ]
      }
    },
    {
      "type": "Feature",
      "properties": {
        "norad_id": 41028,
        "name": "GSAT-15 (GAGAN/PRN 139)",
        "group": "gnss",
        "lat": 0.025958860995922796,
        "lon": 74.91274884270904,
        "alt_km": 35795.50273509372,
        "timestamp": "2025-12-20T16:47:36.528875+00:00",
        "meta_object_name": "GSAT-15 (GAGAN/PRN 139)",
        "meta_object_id": "2015-065A",
        "meta_epoch": "2025-12-20T08:32:20.567904",
        "meta_mean_motion": 1.00272361,
        "meta_eccentricity": 0.0002407,
        "meta_inclination": 0.0297,
        "meta_ra_of_asc_node": 271.8736,
        "meta_arg_of_pericenter": 322.6244,
        "meta_mean_anomaly": 76.2775,
        "meta_ephemeris_type": 0,
        "meta_classification_type": "U",
        "meta_norad_cat_id": 41028,
        "meta_element_set_no": 999,
        "meta_rev_at_epoch": 3700,
        "meta_bstar": 0,
        "meta_mean_motion_dot": -2.34e-06,
        "meta_mean_motion_ddot": 0,
        "tle_line1": "1 41028U 15065A   25354.35579361 -.00000234  00000+0  00000+0 0  9998",
        "tle_line2": "2 41028   0.0297 271.8736 0002407 322.6244  76.2775  1.00272361 37001"
      },
      "geometry": {
        "type": "Point",
        "coordinates": [
          74.91274884270904,
          0.025958860995922796
        ]
      }
    },
    {
      "type": "Feature",
      "properties": {
        "norad_id": 41174,
        "name": "GSAT0209 (GALILEO 12)",
        "group": "gnss",
        "lat": -8.901310003910284,
        "lon": 100.03236979861656,
        "alt_km": 23216.224514737325,
        "timestamp": "2025-12-20T16:47:36.528888+00:00",
        "meta_object_name": "GSAT0209 (GALILEO 12)",
        "meta_object_id": "2015-079A",
        "meta_epoch": "2025-12-17T18:49:30.009504",
        "meta_mean_motion": 1.70474581,
        "meta_eccentricity": 0.00024688,
        "meta_inclination": 55.7156,
        "meta_ra_of_asc_node": 106.2426,
        "meta_arg_of_pericenter": 347.1145,
        "meta_mean_anomaly": 12.8381,
        "meta_ephemeris_type": 0,
        "meta_classification_type": "U",
        "meta_norad_cat_id": 41174,
        "meta_element_set_no": 999,
        "meta_rev_at_epoch": 6168,
        "meta_bstar": 0,
        "meta_mean_motion_dot": -9e-08,
        "meta_mean_motion_ddot": 0,
        "tle_line1": "1 41174U 15079A   25351.78437511 -.00000009  00000+0  00000+0 0  9999",
        "tle_line2": "2 41174  55.7156 106.2426 0002468 347.1145  12.8381  1.70474581 61685"
      },
      "geometry": {
        "type": "Point",
        "coordinates": [
          100.03236979861656,
          -8.901310003910284
        ]
      }
    },
    {
      "type": "Feature",
      "properties": {
        "norad_id": 41175,
        "name": "GSAT0208 (GALILEO 11)",
        "group": "gnss",
        "lat": -27.621896059730524,
        "lon": -52.96226861474297,
        "alt_km": 23230.11850059721,
        "timestamp": "2025-12-20T16:47:36.528900+00:00",
        "meta_object_name": "GSAT0208 (GALILEO 11)",
        "meta_object_id": "2015-079B",
        "meta_epoch": "2025-12-20T08:25:16.296384",
        "meta_mean_motion": 1.70474393,
        "meta_eccentricity": 0.0001808,
        "meta_inclination": 55.7157,
        "meta_ra_of_asc_node": 106.1693,
        "meta_arg_of_pericenter": 359.1842,
        "meta_mean_anomaly": 0.7815,
        "meta_ephemeris_type": 0,
        "meta_classification_type": "U",
        "meta_norad_cat_id": 41175,
        "meta_element_set_no": 999,
        "meta_rev_at_epoch": 6214,
        "meta_bstar": 0,
        "meta_mean_motion_dot": -2e-08,
        "meta_mean_motion_ddot": 0,
        "tle_line1": "1 41175U 15079B   25354.35088306 -.00000002  00000+0  00000+0 0  9993",
        "tle_line2": "2 41175  55.7157 106.1693 0001808 359.1842   0.7815  1.70474393 62147"
      },
      "geometry": {
        "type": "Point",
        "coordinates": [
          -52.96226861474297,
          -27.621896059730524
        ]
      }
    },
    {
      "type": "Feature",
      "properties": {
        "norad_id": 41241,
        "name": "IRNSS-1E",
        "group": "gnss",
        "lat": 16.09981102949153,
        "lon": 88.88500636768082,
        "alt_km": 35869.55283475937,
        "timestamp": "2025-12-20T16:47:36.528911+00:00",
        "meta_object_name": "IRNSS-1E",
        "meta_object_id": "2016-003A",
        "meta_epoch": "2025-12-18T14:48:50.843232",
        "meta_mean_motion": 1.00271358,
        "meta_eccentricity": 0.00216611,
        "meta_inclination": 32.8383,
        "meta_ra_of_asc_node": 62.3675,
        "meta_arg_of_pericenter": 188.4275,
        "meta_mean_anomaly": 170.6574,
        "meta_ephemeris_type": 0,
        "meta_classification_type": "U",
        "meta_norad_cat_id": 41241,
        "meta_element_set_no": 999,
        "meta_rev_at_epoch": 3626,
        "meta_bstar": 0,
        "meta_mean_motion_dot": -3.05e-06,
        "meta_mean_motion_ddot": 0,
        "tle_line1": "1 41241U 16003A   25352.61725513 -.00000305  00000+0  00000+0 0  9996",
        "tle_line2": "2 41241  32.8383  62.3675 0021661 188.4275 170.6574  1.00271358 36265"
      },
      "geometry": {
        "type": "Point",
        "coordinates": [
          88.88500636768082,
          16.09981102949153
        ]
      }
    },
    {
      "type": "Feature",
      "properties": {
        "norad_id": 41328,
        "name": "GPS BIIF-12 (PRN 32)",
        "group": "gnss",
        "lat": -43.13248053353296,
        "lon": -43.25455928439082,
        "alt_km": 19944.049714572127,
        "timestamp": "2025-12-20T16:47:36.528943+00:00",
        "meta_object_name": "GPS BIIF-12 (PRN 32)",
        "meta_object_id": "2016-007A",
        "meta_epoch": "2025-12-20T08:54:35.720064",
        "meta_mean_motion": 2.00560411,
        "meta_eccentricity": 0.0092542,
        "meta_inclination": 55.4103,
        "meta_ra_of_asc_node": 96.5541,
        "meta_arg_of_pericenter": 243.7653,
        "meta_mean_anomaly": 115.2741,
        "meta_ephemeris_type": 0,
        "meta_classification_type": "U",
        "meta_norad_cat_id": 41328,
        "meta_element_set_no": 999,
        "meta_rev_at_epoch": 7225,
        "meta_bstar": 0,
        "meta_mean_motion_dot": -1.8e-07,
        "meta_mean_motion_ddot": 0,
        "tle_line1": "1 41328U 16007A   25354.37124676 -.00000018  00000+0  00000+0 0  9995",
        "tle_line2": "2 41328  55.4103  96.5541 0092542 243.7653 115.2741  2.00560411 72256"
      },
      "geometry": {
        "type": "Point",
        "coordinates": [
          -43.25455928439082,
          -43.13248053353296
        ]
      }
    }
  ]
}